     2.100          NAVIGATION                              RINEX VERSION / TYPE
fic2rin                                 07/13/2013 00:13:50 PGM / RUN BY / DATE
                                                            END OF HEADER
19 13  7 12 10  0  0.0 -.388177577406D-03 -.295585778076D-11  .000000000000D+00
     .790000000000D+02 -.939062500000D+02  .430125059292D-08  .263756158544D+01
    -.488758087158D-05  .945765408687D-02  .782869756222D-05  .515372477531D+04
     .468000000000D+06 -.139698386192D-06  .310862484378D+01 -.614672899246D-07
     .963428511556D+00  .230781250000D+03  .337300937069D+00 -.794461663946D-08
    -.226795161215D-09  .100000000000D+01  .174800000000D+04  .000000000000D+00
     .240000000000D+01  .000000000000D+00 -.149011611938D-07  .790000000000D+02
     .460806000000D+06  .400000000000D+01
20 13  7 12 10  0  0.0  .108888838440D-03  .227373675443D-11  .000000000000D+00
     .900000000000D+02  .386562500000D+02  .575738267524D-08 -.886828156227D+00
     .215135514736D-05  .537856190931D-02  .525265932083D-05  .515370699501D+04
     .468000000000D+06 -.186264514923D-08 -.122660875553D+01  .931322574615D-07
     .927452737364D+00  .265531250000D+03  .129010245621D+01 -.875286459194D-08
     .310370071016D-09  .100000000000D+01  .174800000000D+04  .000000000000D+00
     .240000000000D+01  .000000000000D+00 -.791624188423D-08  .900000000000D+02
     .460806000000D+06  .400000000000D+01
21 13  7 12 10  0  0.0 -.307935290039D-03 -.204636307899D-11  .000000000000D+00
     .830000000000D+02  .312500000000D-01  .508056876894D-08 -.352561267535D+00
     .193715095520D-06  .204473468475D-01  .106692314148D-04  .515366536903D+04
     .468000000000D+06 -.335276126862D-07 -.222087004598D+01  .324100255966D-06
     .931657494543D+00  .164406250000D+03 -.212004040401D+01 -.856642825469D-08
     .379658671450D-09  .100000000000D+01  .174800000000D+04  .000000000000D+00
     .240000000000D+01  .000000000000D+00 -.111758708954D-07  .830000000000D+02
     .460806000000D+06  .400000000000D+01
22 13  7 12 10  0  0.0  .175290741026D-03  .136424205266D-11  .000000000000D+00
     .131000000000D+03  .340937500000D+02  .567845081598D-08 -.197244971501D+01
     .175833702087D-05  .677818304393D-02  .473856925964D-05  .515364409447D+04
     .468000000000D+06  .782310962677D-07 -.117067435049D+01  .540167093277D-07
     .924433681139D+00  .264500000000D+03 -.203512999666D+01 -.859642950437D-08
     .331799535068D-09  .100000000000D+01  .174800000000D+04  .000000000000D+00
     .240000000000D+01  .000000000000D+00 -.172294676304D-07  .131000000000D+03
     .460806000000D+06  .400000000000D+01
23 13  7 12 10  0  0.0  .677029602230D-04 -.352429196937D-11  .000000000000D+00
     .700000000000D+02 -.247187500000D+02  .487234580990D-08  .216815534222D+01
    -.120326876640D-05  .877357041463D-02  .823847949505D-05  .515368768501D+04
     .468000000000D+06 -.225380063057D-06 -.112992468693D+00  .134110450745D-06
     .955542196682D+00  .221375000000D+03 -.286270756856D+01 -.815462538717D-08
    -.431446542909D-09  .100000000000D+01  .174800000000D+04  .000000000000D+00
     .240000000000D+01  .000000000000D+00 -.200234353542D-07  .700000000000D+02
     .460806000000D+06  .400000000000D+01
24 13  7 12 10  0  0.0 -.983476638794D-05 -.682121026330D-12  .000000000000D+00
     .200000000000D+01  .515312500000D+02  .444875673715D-08  .129434999789D+01
     .280328094959D-05  .946474028751D-03  .102259218693D-04  .515367768669D+04
     .468000000000D+06  .409781932831D-07  .913198735079D+00  .316649675369D-07
     .958859669177D+00  .179093750000D+03  .397057591568D+00 -.802283418325D-08
    -.253581991279D-10  .100000000000D+01  .174800000000D+04  .000000000000D+00
     .240000000000D+01  .000000000000D+00  .279396772385D-08  .200000000000D+01
     .460806000000D+06  .400000000000D+01
26 13  7 12 10  0  0.0  .932668335736D-04  .165982783074D-10  .000000000000D+00
     .182000000000D+03 -.300312500000D+02  .420481800469D-08  .215356491413D+01
    -.186637043953D-05  .210880093509D-01  .838749110699D-05  .515369073677D+04
     .468000000000D+06  .158324837685D-06 -.314834819277D-01 -.406056642532D-06
     .978802422981D+00  .224343750000D+03  .124640423591D+01 -.759603069088D-08
    -.459304846176D-09  .100000000000D+01  .174800000000D+04  .000000000000D+00
     .340000000000D+01  .000000000000D+00 -.605359673500D-08  .182000000000D+03
     .460806000000D+06  .400000000000D+01
27 13  7 12 10  0  0.0 -.984454527497D-05 -.454747350886D-11  .000000000000D+00
     .630000000000D+02 -.888125000000D+02  .441268380599D-08  .268534959365D+01
    -.460818409920D-05  .276094186120D-03  .669807195663D-05  .515366586304D+04
     .468000000000D+06  .372529029846D-08  .301336609187D+01  .372529029846D-08
     .960755978200D+00  .251468750000D+03  .815383504567D+00 -.813962476233D-08
    -.210723063176D-09  .100000000000D+01  .174800000000D+04  .000000000000D+00
     .240000000000D+01  .000000000000D+00  .372529029846D-08  .630000000000D+02
     .460806000000D+06  .400000000000D+01
28 13  7 12 10  0  0.0  .275040976703D-03  .318323145621D-11  .000000000000D+00
     .670000000000D+02  .236562500000D+02  .412195741036D-08 -.209819907951D+01
     .131502747536D-05  .186217536684D-01  .311993062496D-05  .515364470482D+04
     .468000000000D+06  .342726707458D-06  .202680147530D+01 -.167638063431D-07
     .983509635467D+00  .330531250000D+03 -.176713847406D+01 -.783996942334D-08
     .122862260563D-09  .100000000000D+01  .174800000000D+04  .000000000000D+00
     .240000000000D+01  .000000000000D+00 -.107102096081D-07  .670000000000D+02
     .460806000000D+06  .400000000000D+01
29 13  7 12 10  0  0.0  .452844891697D-03  .318323145621D-11  .000000000000D+00
     .910000000000D+02 -.940625000000D+02  .431732269096D-08 -.939048080608D-01
    -.485405325890D-05  .172262941487D-02  .672414898872D-05  .515362071800D+04
     .468000000000D+06 -.167638063431D-07  .306565586327D+01 -.132247805595D-06
     .966849620093D+00  .255187500000D+03 -.979421493339D+00 -.803354891527D-08
    -.278225874939D-09  .100000000000D+01  .174800000000D+04  .000000000000D+00
     .340000000000D+01  .000000000000D+00 -.931322574615D-08  .910000000000D+02
     .460806000000D+06  .400000000000D+01
31 13  7 12 10  0  0.0  .320463906974D-03  .113686837722D-11  .000000000000D+00
     .740000000000D+02  .554687500000D+02  .392337771014D-08  .608064120357D+00
     .272504985332D-05  .784255901817D-02  .946223735809D-05  .515363217735D+04
     .468000000000D+06  .428408384323D-07  .947211242487D+00 -.132247805595D-06
     .980319306645D+00  .208812500000D+03 -.734788508056D+00 -.783461205733D-08
    -.117862052285D-10  .100000000000D+01  .174800000000D+04  .000000000000D+00
     .240000000000D+01  .000000000000D+00 -.130385160446D-07  .740000000000D+02
     .460806000000D+06  .400000000000D+01
32 13  7 12 10  0  0.0 -.558339059353D-03  .795807864051D-12  .000000000000D+00
     .250000000000D+02  .271875000000D+02  .526986236806D-08  .109115316949D+01
     .139139592648D-05  .115790169220D-01  .468268990517D-05  .515364291573D+04
     .468000000000D+06  .251457095146D-06 -.108587565595D+01  .145286321640D-06
     .948649955124D+00  .285250000000D+03 -.338101720871D+00 -.843106547343D-08
     .119290683221D-09  .100000000000D+01  .174800000000D+04  .000000000000D+00
     .240000000000D+01  .000000000000D+00 -.279396772385D-08  .250000000000D+02
     .460806000000D+06  .400000000000D+01
15 13  7 12  9 59 44.0 -.127257779241D-03 -.170530256582D-11  .000000000000D+00
     .120000000000D+02 -.298125000000D+02  .526271921338D-08  .264905611607D+01
    -.148452818394D-05  .545042252634D-02  .712461769581D-05  .515378640366D+04
     .467984000000D+06 -.106170773506D-06 -.154820368707D+00 -.558793544769D-08
     .940560413134D+00  .232500000000D+03  .164056294266D+00 -.831213194795D-08
    -.397159400426D-09  .100000000000D+01  .174800000000D+04  .000000000000D+00
     .240000000000D+01  .000000000000D+00 -.102445483208D-07  .120000000000D+02
     .461796000000D+06  .400000000000D+01
18 13  7 12  9 59 44.0  .263235531747D-03  .193267624127D-11  .000000000000D+00
     .400000000000D+01  .375312500000D+02  .563702051882D-08 -.139113386823D+01
     .225380063057D-05  .145362173207D-01  .468082726002D-05  .515361168289D+04
     .467984000000D+06  .264495611191D-06 -.117319060323D+01  .186264514923D-06
     .926683151753D+00  .267031250000D+03 -.209264868493D+01 -.858035740633D-08
     .318941856637D-09  .100000000000D+01  .174800000000D+04  .000000000000D+00
     .240000000000D+01  .000000000000D+00 -.111758708954D-07  .400000000000D+01
     .465456000000D+06  .400000000000D+01
29 13  7 12  9 59 44.0  .452845357358D-03  .318323145621D-11  .000000000000D+00
     .000000000000D+00 -.940625000000D+02  .431696553323D-08 -.962401768354D-01
    -.485405325890D-05  .172262545675D-02  .672414898872D-05  .515362072372D+04
     .467984000000D+06 -.167638063431D-07  .306565600664D+01 -.132247805595D-06
     .966849611316D+00  .255187500000D+03 -.979420045050D+00 -.803354891527D-08
    -.278225874939D-09  .100000000000D+01  .174800000000D+04  .000000000000D+00
     .240000000000D+01  .000000000000D+00 -.931322574615D-08  .000000000000D+00
     .466206000000D+06  .400000000000D+01
15 13  7 12 11 59 44.0 -.127269886434D-03 -.170530256582D-11  .000000000000D+00
     .130000000000D+02 -.301875000000D+02  .524486132667D-08 -.258400434035D+01
    -.161491334438D-05  .545084045734D-02  .738911330700D-05  .515378562355D+04
     .475184000000D+06 -.745058059692D-07 -.154880260573D+00 -.800937414169D-07
     .940557580924D+00  .229406250000D+03  .164049106949D+00 -.832106089130D-08
    -.377158567311D-09  .100000000000D+01  .174800000000D+04  .000000000000D+00
     .240000000000D+01  .000000000000D+00 -.102445483208D-07  .130000000000D+02
     .468006000000D+06  .400000000000D+01
